start=new Date('2022-12-07T00:00:00.000Z').valueOf();
sats=[{"EPOCH":"2022-12-06T18:25:44.422464","ECCENTRICITY":"0.00016660","CLASSIFICATION_TYPE":"U","MEAN_MOTION":"15.01230423","ARG_OF_PERICENTER":"188.5106","OBJECT_NAME":"STARLINK-4383","APOAPSIS":"564.259","OBJECT_ID":"2022-099J","GP_ID":"219702176","PERIAPSIS":"561.947","EPHEMERIS_TYPE":"0","LAUNCH_DATE":"2022-08-12","NORAD_CAT_ID":"53473","MEAN_ELEMENT_THEORY":"SGP4","MEAN_MOTION_DDOT":"0.0000000000000","REF_FRAME":"TEME","MEAN_ANOMALY":"171.6090","SEMIMAJOR_AXIS":"6941.238","MEAN_MOTION_DOT":"-0.00004965","PERIOD":"95.921","FILE":"3683382","TLE_LINE1":"1 53473U 22099J   22340.76787526 -.00004965  00000-0 -38255-3 0  9995","ELEMENT_SET_NO":"999","BSTAR":"-0.00038255000000","RA_OF_ASC_NODE":"99.5819","REV_AT_EPOCH":"1784","SITE":"AFWTR","OBJECT_TYPE":"PAYLOAD","TIME_SYSTEM":"UTC","TLE_LINE2":"2 53473  97.6562  99.5819 0001666 188.5106 171.6090 15.01230423 17843","RCS_SIZE":"LARGE","DECAY_DATE":null,"COUNTRY_CODE":"US","CENTER_NAME":"EARTH","INCLINATION":"97.6562"},{"INCLINATION":"97.6642","CENTER_NAME":"EARTH","COUNTRY_CODE":"US","DECAY_DATE":null,"RCS_SIZE":"LARGE","TIME_SYSTEM":"UTC","TLE_LINE2":"2 53474  97.6642  99.5868 0000621  13.8878 346.2363 15.01260475 17600","OBJECT_TYPE":"PAYLOAD","REV_AT_EPOCH":"1760","SITE":"AFWTR","RA_OF_ASC_NODE":"99.5868","BSTAR":"0.00002614600000","TLE_LINE1":"1 53474U 22099K   22340.76068098  .00000277  00000-0  26146-4 0  9999","ELEMENT_SET_NO":"999","PERIOD":"95.919","FILE":"3683274","MEAN_MOTION_DOT":"0.00000277","SEMIMAJOR_AXIS":"6941.145","MEAN_ANOMALY":"346.2363","MEAN_ELEMENT_THEORY":"SGP4","MEAN_MOTION_DDOT":"0.0000000000000","REF_FRAME":"TEME","NORAD_CAT_ID":"53474","LAUNCH_DATE":"2022-08-12","PERIAPSIS":"562.579","EPHEMERIS_TYPE":"0","GP_ID":"219699329","OBJECT_ID":"2022-099K","APOAPSIS":"563.441","OBJECT_NAME":"STARLINK-4445","ECCENTRICITY":"0.00006210","CLASSIFICATION_TYPE":"U","ARG_OF_PERICENTER":"13.8878","MEAN_MOTION":"15.01260475","EPOCH":"2022-12-06T18:15:22.836672"},{"LAUNCH_DATE":"2022-08-12","EPHEMERIS_TYPE":"0","PERIAPSIS":"562.338","OBJECT_ID":"2022-099L","GP_ID":"219669433","MEAN_MOTION_DDOT":"0.0000000000000","REF_FRAME":"TEME","MEAN_ELEMENT_THEORY":"SGP4","NORAD_CAT_ID":"53475","OBJECT_NAME":"STARLINK-4389","CLASSIFICATION_TYPE":"U","ARG_OF_PERICENTER":"178.0551","MEAN_MOTION":"15.01263024","ECCENTRICITY":"0.00009580","EPOCH":"2022-12-06T08:47:08.234592","APOAPSIS":"563.667","DECAY_DATE":null,"RCS_SIZE":"LARGE","TLE_LINE2":"2 53475  97.6537  99.1820 0000958 178.0551 182.0677 15.01263024 18241","TIME_SYSTEM":"UTC","OBJECT_TYPE":"PAYLOAD","INCLINATION":"97.6537","CENTER_NAME":"EARTH","COUNTRY_CODE":"US","MEAN_MOTION_DOT":"0.00002777","SEMIMAJOR_AXIS":"6941.138","MEAN_ANOMALY":"182.0677","SITE":"AFWTR","REV_AT_EPOCH":"1824","RA_OF_ASC_NODE":"99.1820","BSTAR":"0.00022068000000","TLE_LINE1":"1 53475U 22099L   22340.36606753  .00002777  00000-0  22068-3 0  9997","ELEMENT_SET_NO":"999","FILE":"3683104","PERIOD":"95.919"},{"COUNTRY_CODE":"US","CENTER_NAME":"EARTH","INCLINATION":"97.6555","OBJECT_TYPE":"PAYLOAD","TLE_LINE2":"2 53476  97.6555  99.1883 0001462 217.8631 142.2491 15.01256732 17545","TIME_SYSTEM":"UTC","DECAY_DATE":null,"RCS_SIZE":"LARGE","FILE":"3683104","PERIOD":"95.920","TLE_LINE1":"1 53476U 22099M   22340.36977390 -.00002521  00000-0 -19174-3 0  9999","BSTAR":"-0.00019174000000","ELEMENT_SET_NO":"999","RA_OF_ASC_NODE":"99.1883","SITE":"AFWTR","REV_AT_EPOCH":"1754","MEAN_ANOMALY":"142.2491","SEMIMAJOR_AXIS":"6941.157","MEAN_MOTION_DOT":"-0.00002521","NORAD_CAT_ID":"53476","MEAN_MOTION_DDOT":"0.0000000000000","REF_FRAME":"TEME","MEAN_ELEMENT_THEORY":"SGP4","OBJECT_ID":"2022-099M","GP_ID":"219668823","EPHEMERIS_TYPE":"0","PERIAPSIS":"562.007","LAUNCH_DATE":"2022-08-12","APOAPSIS":"564.037","EPOCH":"2022-12-06T08:52:28.464960","MEAN_MOTION":"15.01256732","CLASSIFICATION_TYPE":"U","ARG_OF_PERICENTER":"217.8631","ECCENTRICITY":"0.00014620","OBJECT_NAME":"STARLINK-4378"},{"MEAN_MOTION_DOT":"0.00000860","SEMIMAJOR_AXIS":"6941.150","MEAN_ANOMALY":"55.1043","SITE":"AFWTR","REV_AT_EPOCH":"1784","RA_OF_ASC_NODE":"99.5763","BSTAR":"0.00007157900000","TLE_LINE1":"1 53477U 22099N   22340.76228738  .00000860  00000-0  71579-4 0  9999","ELEMENT_SET_NO":"999","FILE":"3683382","PERIOD":"95.919","DECAY_DATE":null,"RCS_SIZE":"LARGE","TLE_LINE2":"2 53477  97.6589  99.5763 0000853 305.0101  55.1043 15.01258888 17841","TIME_SYSTEM":"UTC","OBJECT_TYPE":"PAYLOAD","INCLINATION":"97.6589","CENTER_NAME":"EARTH","COUNTRY_CODE":"US","OBJECT_NAME":"STARLINK-4412","CLASSIFICATION_TYPE":"U","ARG_OF_PERICENTER":"305.0101","MEAN_MOTION":"15.01258888","ECCENTRICITY":"0.00008530","EPOCH":"2022-12-06T18:17:41.629632","APOAPSIS":"563.607","LAUNCH_DATE":"2022-08-12","EPHEMERIS_TYPE":"0","PERIAPSIS":"562.423","OBJECT_ID":"2022-099N","GP_ID":"219702257","MEAN_MOTION_DDOT":"0.0000000000000","REF_FRAME":"TEME","MEAN_ELEMENT_THEORY":"SGP4","NORAD_CAT_ID":"53477"},{"OBJECT_ID":"2022-099P","GP_ID":"219668626","PERIAPSIS":"562.658","EPHEMERIS_TYPE":"0","LAUNCH_DATE":"2022-08-12","NORAD_CAT_ID":"53478","MEAN_ELEMENT_THEORY":"SGP4","REF_FRAME":"TEME","MEAN_MOTION_DDOT":"0.0000000000000","EPOCH":"2022-12-06T08:50:09.802464","ECCENTRICITY":"0.00005050","ARG_OF_PERICENTER":"216.4212","CLASSIFICATION_TYPE":"U","MEAN_MOTION":"15.01261238","OBJECT_NAME":"STARLINK-4433","APOAPSIS":"563.359","OBJECT_TYPE":"PAYLOAD","TIME_SYSTEM":"UTC","TLE_LINE2":"2 53478  97.6564  99.1845 0000505 216.4212 143.6978 15.01261238 17544","RCS_SIZE":"LARGE","DECAY_DATE":null,"COUNTRY_CODE":"US","CENTER_NAME":"EARTH","INCLINATION":"97.6564","MEAN_ANOMALY":"143.6978","SEMIMAJOR_AXIS":"6941.143","MEAN_MOTION_DOT":"0.00000036","PERIOD":"95.919","FILE":"3683104","ELEMENT_SET_NO":"999","TLE_LINE1":"1 53478U 22099P   22340.36816901  .00000036  00000-0  74200-5 0  9991","BSTAR":"0.00000742000000","RA_OF_ASC_NODE":"99.1845","REV_AT_EPOCH":"1754","SITE":"AFWTR"},{"GP_ID":"219669794","OBJECT_ID":"2022-099Q","LAUNCH_DATE":"2022-08-12","EPHEMERIS_TYPE":"0","PERIAPSIS":"562.408","NORAD_CAT_ID":"53479","REF_FRAME":"TEME","MEAN_MOTION_DDOT":"0.0000000000000","MEAN_ELEMENT_THEORY":"SGP4","CLASSIFICATION_TYPE":"U","ARG_OF_PERICENTER":"271.1209","MEAN_MOTION":"15.01273196","ECCENTRICITY":"0.00008120","EPOCH":"2022-12-06T08:39:08.139168","OBJECT_NAME":"STARLINK-4436","APOAPSIS":"563.535","OBJECT_TYPE":"PAYLOAD","DECAY_DATE":null,"RCS_SIZE":"LARGE","TLE_LINE2":"2 53479  97.6609  99.1884 0000812 271.1209  88.9922 15.01273196 17549","TIME_SYSTEM":"UTC","COUNTRY_CODE":"US","INCLINATION":"97.6609","CENTER_NAME":"EARTH","SEMIMAJOR_AXIS":"6941.106","MEAN_ANOMALY":"88.9922","MEAN_MOTION_DOT":"0.00002242","ELEMENT_SET_NO":"999","TLE_LINE1":"1 53479U 22099Q   22340.36051087  .00002242  00000-0  17903-3 0  9994","BSTAR":"0.00017903000000","FILE":"3683104","PERIOD":"95.919","SITE":"AFWTR","REV_AT_EPOCH":"1754","RA_OF_ASC_NODE":"99.1884"},{"REV_AT_EPOCH":"1784","SITE":"AFWTR","RA_OF_ASC_NODE":"99.5751","BSTAR":"-0.00004800800000","TLE_LINE1":"1 53480U 22099R   22340.76414852 -.00000676  00000-0 -48008-4 0  9995","ELEMENT_SET_NO":"999","PERIOD":"95.919","FILE":"3683383","MEAN_MOTION_DOT":"-0.00000676","SEMIMAJOR_AXIS":"6941.144","MEAN_ANOMALY":"296.3385","INCLINATION":"97.6567","CENTER_NAME":"EARTH","COUNTRY_CODE":"US","RCS_SIZE":"LARGE","DECAY_DATE":null,"TIME_SYSTEM":"UTC","TLE_LINE2":"2 53480  97.6567  99.5751 0000886  63.7930 296.3385 15.01260930 17841","OBJECT_TYPE":"PAYLOAD","APOAPSIS":"563.624","OBJECT_NAME":"STARLINK-4442","ECCENTRICITY":"0.00008860","CLASSIFICATION_TYPE":"U","ARG_OF_PERICENTER":"63.7930","MEAN_MOTION":"15.01260930","EPOCH":"2022-12-06T18:20:22.432128","MEAN_ELEMENT_THEORY":"SGP4","MEAN_MOTION_DDOT":"0.0000000000000","REF_FRAME":"TEME","NORAD_CAT_ID":"53480","LAUNCH_DATE":"2022-08-12","PERIAPSIS":"562.394","EPHEMERIS_TYPE":"0","OBJECT_ID":"2022-099R","GP_ID":"219702274"},{"INCLINATION":"97.6602","CENTER_NAME":"EARTH","COUNTRY_CODE":"US","DECAY_DATE":null,"RCS_SIZE":"LARGE","TIME_SYSTEM":"UTC","TLE_LINE2":"2 53481  97.6602  99.5857 0000473   1.9903 358.1323 15.01267799 17608","OBJECT_TYPE":"PAYLOAD","REV_AT_EPOCH":"1760","SITE":"AFWTR","RA_OF_ASC_NODE":"99.5857","ELEMENT_SET_NO":"999","TLE_LINE1":"1 53481U 22099S   22340.75857993  .00000819  00000-0  68358-4 0  9999","BSTAR":"0.00006835800000","PERIOD":"95.919","FILE":"3683274","MEAN_MOTION_DOT":"0.00000819","SEMIMAJOR_AXIS":"6941.123","MEAN_ANOMALY":"358.1323","MEAN_ELEMENT_THEORY":"SGP4","REF_FRAME":"TEME","MEAN_MOTION_DDOT":"0.0000000000000","NORAD_CAT_ID":"53481","LAUNCH_DATE":"2022-08-12","PERIAPSIS":"562.659","EPHEMERIS_TYPE":"0","GP_ID":"219698345","OBJECT_ID":"2022-099S","APOAPSIS":"563.316","OBJECT_NAME":"STARLINK-4302","ECCENTRICITY":"0.00004730","CLASSIFICATION_TYPE":"U","ARG_OF_PERICENTER":"1.9903","MEAN_MOTION":"15.01267799","EPOCH":"2022-12-06T18:12:21.305952"},{"DECAY_DATE":null,"RCS_SIZE":"LARGE","TIME_SYSTEM":"UTC","TLE_LINE2":"2 53482  97.6617  99.7155 0000370 343.6138  16.5074 15.01255424 17868","OBJECT_TYPE":"PAYLOAD","INCLINATION":"97.6617","CENTER_NAME":"EARTH","COUNTRY_CODE":"US","MEAN_MOTION_DOT":"-0.00001765","SEMIMAJOR_AXIS":"6941.161","MEAN_ANOMALY":"16.5074","REV_AT_EPOCH":"1786","SITE":"AFWTR","RA_OF_ASC_NODE":"99.7155","BSTAR":"-0.00013286000000","TLE_LINE1":"1 53482U 22099T   22340.89213678 -.00001765  00000-0 -13286-3 0  9993","ELEMENT_SET_NO":"999","PERIOD":"95.920","FILE":"3683383","LAUNCH_DATE":"2022-08-12","PERIAPSIS":"562.769","EPHEMERIS_TYPE":"0","GP_ID":"219702188","OBJECT_ID":"2022-099T","MEAN_ELEMENT_THEORY":"SGP4","MEAN_MOTION_DDOT":"0.0000000000000","REF_FRAME":"TEME","NORAD_CAT_ID":"53482","OBJECT_NAME":"STARLINK-4360","ECCENTRICITY":"0.00003700","CLASSIFICATION_TYPE":"U","ARG_OF_PERICENTER":"343.6138","MEAN_MOTION":"15.01255424","EPOCH":"2022-12-06T21:24:40.617792","APOAPSIS":"563.283"}];
